MALLIGYONG-1            
1 58400U 23179A   24214.89335479  .00008751  00000+0  38922-3 0  9997
2 58400  97.3980 100.9684 0003157  67.9301 292.2270 15.21723425 38675
